#cP2023  8 13  0  0  0.00000000      96 ORBIT IGS20 HLM  IGS
## 2275      0.00000000   900.00000000 60169 0.0000000000000
+   31   G01G02G03G04G05G06G07G08G09G10G11G12G13G14G15G16G17
+        G18G19G20G21G23G24G25G26G27G28G29G30G31G32  0  0  0
+          0  0  0  0  0  0  0  0  0  0  0  0  0  0  0  0  0
+          0  0  0  0  0  0  0  0  0  0  0  0  0  0  0  0  0
+          0  0  0  0  0  0  0  0  0  0  0  0  0  0  0  0  0
++         2  2  2  3  2  2  2  2  2  2  2  2  2  2  2  2  2
++         2  2  2  2  2  2  2  2  2  2  2  2  2  3  0  0  0
++         0  0  0  0  0  0  0  0  0  0  0  0  0  0  0  0  0
++         0  0  0  0  0  0  0  0  0  0  0  0  0  0  0  0  0
++         0  0  0  0  0  0  0  0  0  0  0  0  0  0  0  0  0
%c G  cc GPS ccc cccc cccc cccc cccc ccccc ccccc ccccc ccccc
%c cc cc ccc ccc cccc cccc cccc cccc ccccc ccccc ccccc ccccc
%f  1.2500000  1.025000000  0.00000000000  0.000000000000000
%f  0.0000000  0.000000000  0.00000000000  0.000000000000000
%i    0    0    0    0      0      0      0      0         0
%i    0    0    0    0      0      0      0      0         0
/* RAPID ORBIT COMBINATION FROM WEIGHTED AVERAGE OF:        
/* cod emr esa gfz grg jgx jpl ngs sio usn whu              
/* REFERENCED TO IGS TIME (IGST) AND TO WEIGHTED MEAN POLE: 
/* PCV:IGS20      OL/AL:FES2014b NONE     Y  ORB:CMB CLK:CMB
*  2023  8 13 12  0  0.00000000
PG01  20245.843207  12326.638830  11980.502683    168.768131  6  6  6  93       
PG02  21195.730082  15096.307707   6230.740567   -565.928050  4  5  6  98       
PG03  14805.180197   2039.317705  21802.262522   -189.137663  5  6  5  99       
PG04  25661.195566   1147.822134   7003.730684    124.322927 12  5  7 129       
PG05  -7792.636394 -17723.137353 -18319.603148   -138.639630  7  5  4  93       
PG06     69.314462 -19002.423154  18577.615966    566.833323  5  2  3  84       
PG07  16164.383728  -3485.393310 -20410.868501     97.047875  7  5  1 104       
PG08  19708.644415   7616.191302 -16406.056837   -136.979494  5  3  5  82       
PG09  25625.113635  -6782.921741  -2092.196112    -87.733523 10  4  5  99       
PG10 -10931.401968  23734.427725  -3489.367739    -49.106022  5  6  4  91       
PG11 -11343.087670 -22946.273738   7189.064586   -318.946503  5  5  5  87       
PG12 -13294.252489  -7022.814805  21620.788916   -412.383941  6  6  3  95       
PG13 -11638.369529 -13279.769818 -20094.300591    559.556575  7  4  6  83       
PG14  13550.822824 -21784.873958  -6509.916146    152.701715  4  7  5  99       
PG15 -20884.303855  -5555.102419 -16078.348496     67.230196  7  7  5  80       
PG16   2595.852789  21015.178061 -16052.954312   -468.787368  6  1  2  86       
PG17  16020.102112 -13457.793268  16855.868708    722.649927  7  4  7  89       
PG18 -14085.517222   6069.512870 -21701.389040   -380.971377  6  6  4  87       
PG19   8008.049736 -14558.076475  20430.714273    357.078213  6  5  6  78       
PG20  -2472.158923 -24815.967069  -9368.583850    417.463748  7  6  4  99       
PG21  20828.010904  16964.295447   3677.064209    150.796409  4  5  7  86       
PG23 -15582.181927  15504.328149 -14782.278814     54.569949  7  3  4  57       
PG24 -21592.293280 -14087.796241   6864.748901   -288.397557  4  2  6  80       
PG25 -16733.933314   8092.077228  18557.986317    461.908651  8  5  8  95       
PG26  -3017.600928  25664.847541  -5401.115521    233.100273  4  4  4  85       
PG27   8018.626484  13675.965194 -21617.701470    -21.231234  5  1  5  67       
PG28  -1490.795176  18268.711116  19202.552923     76.527292  7  5  7 105       
PG29 -26267.124527   3952.663932  -1759.994182   -607.694432  9  6  3  96       
PG30   9028.813641 -13317.037696 -20980.301696   -496.795556  5  5  5  93       
PG31   7290.046768  22299.826969  11850.760754   -221.759018  5  5  5  93       
PG32 -11603.734452  15337.923556  18414.662991   -539.768803  5  6  5 105       
*  2023  8 13 12 15  0.00000000
PG01  20973.105094  13363.323780   9450.407872    168.766861  6  6  6  90       
PG02  21410.833337  15589.105312   3441.181132   -565.924439  4  5  6  84       
PG03  14043.656604   4452.530283  21955.347275   -189.121431  5  6  5  89       
PG04  24767.409124   1532.803799   9641.909502    124.333164 12  5  8 130       
PG05  -7139.734556 -19584.079702 -16582.395891   -138.640755  7  5  4  96       
PG06   1592.755944 -17422.712680  20015.368497    566.828752  5  4  3  86       
PG07  17685.285015  -1671.148458 -19419.979075     97.038433  6  4  1 103       
PG08  17848.538700   8216.723900 -18126.126531   -136.980386  5  2  5  84       
PG09  25752.748797  -6543.299182    752.165584    -87.724664 10  4  5  96       
PG10 -10964.884340  23108.427617  -6327.554523    -49.106890  5  6  4  88       
PG11 -10557.768646 -22335.353985   9824.821613   -318.962053  5  5  4  81       
PG12 -12337.964059  -9348.435037  21315.545394   -412.388049  6  6  3  75       
PG13  -9338.851840 -13519.208228 -21100.118056    559.560912  7  4  6  88       
PG14  13517.689448 -20837.071102  -9153.735169    152.712340  5  7  5  93       
PG15 -19206.937103  -6371.932387 -17802.626253     67.233379  7  7  5  82       
PG16   1760.243769  22490.964171 -13952.435707   -468.782744  6  1  2  72       
PG17  17757.747966 -13586.249074  14849.125472    722.650119  8  4  7  83       
PG18 -15661.806738   4205.355207 -21068.070982   -380.983525  7  6  5  88       
PG19  10324.173425 -14696.645174  19241.387542    357.082971  7  5  6  92       
PG20  -2091.421447 -25694.843259  -6750.885065    417.462104  7  5  4  95       
PG21  20850.134978  17230.506635    886.334385    150.795912  5  5  7  87       
PG23 -15232.093549  13721.040734 -16788.789516     54.574127  7  3  4  62       
PG24 -21886.036282 -14756.748580   4182.545047   -288.407951  4  3  6  83       
PG25 -16206.954252   5882.819774  19818.174329    461.910622  7  5  8  89       
PG26  -3469.526725  26020.980562  -2632.914304    233.098924  4  3  4  88       
PG27   5643.788802  14215.435204 -21985.168396    -21.237333  4  2  4  62       
PG28  -3147.847920  16715.863222  20379.441038     76.524384  7  4  7 106       
PG29 -26326.010652   3754.268467   1118.962960   -607.695460  8  6  4  92       
PG30  10699.859603 -11518.553670 -21279.139272   -496.792738  5  5  5  89       
PG31   6098.536860  21308.629055  14134.394713   -221.759789  5  5  5  85       
PG32 -13574.311347  15622.310723  16716.733853   -539.774994  5  6  5  99       
*  2023  8 13 12 30  0.00000000
PG01  21550.308331  14142.645167   6758.421847    168.765578  6  6  6  90       
PG02  21406.056532  15870.876972    593.411660   -565.920834  5  5  6  86       
PG03  13416.670875   6898.411174  21725.511336   -189.105180  5  7  6  92       
PG04  23614.512973   2032.661589  12115.296322    124.343445 12  4  9  96       
PG05  -6628.782390 -21271.195781 -14562.266886   -138.641910  7  5  4  85       
PG06   3304.118239 -15831.188522  21109.630976    566.824208  6  4  4  97       
PG07  19196.033970    -33.704659 -18085.658558     97.028527  6  4  2 103       
PG08  15852.413317   8967.188279 -19540.252853   -136.981964  5  2  5  72       
PG09  25585.664830  -6216.752612   3583.606781    -87.715835  9  4  4 105       
PG10 -10954.470521  22175.513923  -9054.192178    -49.108269  6  6  3  67       
PG11  -9545.043768 -21554.971010  12291.992226   -318.977610  6  4  4  87       
PG12 -11522.060838 -11665.705366  20634.425343   -412.392172  7  6  3  87       
PG13  -6962.403341 -13895.954121 -21750.248482    559.565286  7  4  6  95       
PG14  13450.380108 -19609.601326 -11638.413804    152.722823  5  7  5  99       
PG15 -17412.746691  -7339.276004 -19233.708877     67.236670  7  7  5  82       
PG16   1083.101027  23773.861732 -11610.898752   -468.778349  5     2  84       
PG17  19255.473250 -13758.953852  12594.763971    722.651324  9  5  7  83       
PG18 -17271.298736   2496.425582 -20073.306262   -380.995590  7  6  6  72       
PG19  12477.379098 -14932.038664  17711.898020    357.087661  8  5  6  92       
PG20  -1780.957931 -26291.312340  -4018.142948    417.460507  7  4  4  94       
PG21  20644.492431  17302.158282  -1918.771728    150.795024  5  6  7  96       
PG23 -14932.233171  11715.984701 -18504.363041     54.578380  8  4  4  59       
PG24 -21977.746708 -15214.259993   1429.637542   -288.418395  5  3  6  76       
PG25 -15760.921294   3530.158204  20725.891750    461.912597  7  5  7  91       
PG26  -3847.681854  26086.121169    181.505267    233.097593  4  3  3  98       
PG27   3278.128037  14888.740227 -21983.643048    -21.243474  5  3  3  75       
PG28  -4967.451383  15174.956507  21205.066410     76.521444  7  4  6 110       
PG29 -26077.379366   3495.266738   3978.773720   -607.696341  8  6  5 106       
PG30  12461.969684  -9794.479377 -21207.539352   -496.789946  5  5  5 101       
PG31   4686.971144  20201.502671  16167.159249   -221.760031  6  5  4  87       
PG32 -15330.239896  15950.982044  14732.555777   -539.781202  4  5  6 106       
EOF
